STARLINK-35781          
1 67110U 25299J   25356.58335648 -.01591327  72140-3 -41794-2 0  9999
2 67110  42.9984 256.4767 0002284 269.3327 164.7935 15.94000866  2341
STARLINK-35875          
1 67111U 25299K   25356.58335648 -.01709300  82402-3 -44677-2 0  9997
2 67111  42.9985 256.4815 0001601 273.7897 158.5617 15.94110850  2286
STARLINK-35906          
1 67112U 25299L   25356.58335648 -.01670333  78959-3 -43663-2 0  9997
2 67112  42.9986 256.4736 0002142 273.7221 161.6621 15.94101655  2285
STARLINK-35789          
1 67113U 25299M   25356.58335648 -.01628346  75330-3 -42579-2 0  9990
2 67113  42.9985 256.4698 0001335 273.1743 163.6807 15.94092151  2286
STARLINK-36180          
1 67114U 25299N   25356.58335648 -.01665476  78536-3 -43534-2 0  9999
2 67114  42.9985 256.4656 0002146 256.4947 182.1749 15.94101554  2393
STARLINK-35892          
1 67115U 25299P   25356.58335648 -.01811212  91799-3 -47194-2 0  9993
2 67115  42.9985 256.4616 0001817 274.7945 165.3765 15.94182701  2287
STARLINK-35738          
1 67116U 25299Q   25356.58335648 -.01756183  86674-3 -45802-2 0  9999
2 67116  42.9986 256.4571 0001767 269.3824 172.6478 15.94157928  2284
STARLINK-35674          
1 67117U 25299R   25356.58335648 -.01695210  81172-3 -44244-2 0  9990
2 67117  42.9986 256.4528 0001821 267.3678 176.3014 15.94135687  2187
STARLINK-35701          
1 67118U 25299S   25356.58335648 -.01726208  83955-3 -45009-2 0  9994
2 67118  42.9986 256.4485 0002093 277.9896 167.3654 15.94157433  2342
STARLINK-36179          
1 67119U 25299T   25356.58335648 -.01732272  84526-3 -45099-2 0  9997
2 67119  42.9984 256.4419 0002037 278.3787 169.4852 15.94186862  2396
STARLINK-36217          
1 67120U 25299U   25356.58335648 -.01740231  85234-3 -45348-2 0  9997
2 67120  42.9987 256.4452 0001480 258.7531 187.9880 15.94172329  2397
STARLINK-36124          
1 67121U 25299V   25356.58335648 -.01755640  86671-3 -45658-2 0  9998
2 67121  42.9985 256.4336 0001682 259.6028 191.6134 15.94211499  2398
