CCSDS_OMM_VERS = 2.0
CREATION_DATE  = 
ORIGINATOR     = 

OBJECT_NAME    = STARLINK-35781
OBJECT_ID      = 2025-299J
CENTER_NAME    = EARTH
REF_FRAME      = TEME
TIME_SYSTEM    = UTC
MEAN_ELEMENT_THEORY = SGP/SGP4

EPOCH          = 2025-12-22T14:00:01.999872
MEAN_MOTION    = 15.94000866
ECCENTRICITY   = .00022842
INCLINATION    = 42.9984
RA_OF_ASC_NODE = 256.4767
ARG_OF_PERICENTER = 269.3327
MEAN_ANOMALY   = 164.7935

EPHEMERIS_TYPE = 0
CLASSIFICATION_TYPE = U
NORAD_CAT_ID   = 67110
ELEMENT_SET_NO = 999
REV_AT_EPOCH   = 234
BSTAR          = -.41794053E-2
MEAN_MOTION_DOT = -.1591327E-1
MEAN_MOTION_DDOT = .7213988E-3

CCSDS_OMM_VERS = 2.0
CREATION_DATE  = 
ORIGINATOR     = 

OBJECT_NAME    = STARLINK-35875
OBJECT_ID      = 2025-299K
CENTER_NAME    = EARTH
REF_FRAME      = TEME
TIME_SYSTEM    = UTC
MEAN_ELEMENT_THEORY = SGP/SGP4

EPOCH          = 2025-12-22T14:00:01.999872
MEAN_MOTION    = 15.94110850
ECCENTRICITY   = .00016013
INCLINATION    = 42.9985
RA_OF_ASC_NODE = 256.4815
ARG_OF_PERICENTER = 273.7897
MEAN_ANOMALY   = 158.5617

EPHEMERIS_TYPE = 0
CLASSIFICATION_TYPE = U
NORAD_CAT_ID   = 67111
ELEMENT_SET_NO = 999
REV_AT_EPOCH   = 228
BSTAR          = -.44677209E-2
MEAN_MOTION_DOT = -.17093E-1
MEAN_MOTION_DDOT = .82402344E-3

CCSDS_OMM_VERS = 2.0
CREATION_DATE  = 
ORIGINATOR     = 

OBJECT_NAME    = STARLINK-35906
OBJECT_ID      = 2025-299L
CENTER_NAME    = EARTH
REF_FRAME      = TEME
TIME_SYSTEM    = UTC
MEAN_ELEMENT_THEORY = SGP/SGP4

EPOCH          = 2025-12-22T14:00:01.999872
MEAN_MOTION    = 15.94101655
ECCENTRICITY   = .00021422
INCLINATION    = 42.9986
RA_OF_ASC_NODE = 256.4736
ARG_OF_PERICENTER = 273.7221
MEAN_ANOMALY   = 161.6621

EPHEMERIS_TYPE = 0
CLASSIFICATION_TYPE = U
NORAD_CAT_ID   = 67112
ELEMENT_SET_NO = 999
REV_AT_EPOCH   = 228
BSTAR          = -.43662566E-2
MEAN_MOTION_DOT = -.1670333E-1
MEAN_MOTION_DDOT = .78958967E-3

CCSDS_OMM_VERS = 2.0
CREATION_DATE  = 
ORIGINATOR     = 

OBJECT_NAME    = STARLINK-35789
OBJECT_ID      = 2025-299M
CENTER_NAME    = EARTH
REF_FRAME      = TEME
TIME_SYSTEM    = UTC
MEAN_ELEMENT_THEORY = SGP/SGP4

EPOCH          = 2025-12-22T14:00:01.999872
MEAN_MOTION    = 15.94092151
ECCENTRICITY   = .00013354
INCLINATION    = 42.9985
RA_OF_ASC_NODE = 256.4698
ARG_OF_PERICENTER = 273.1743
MEAN_ANOMALY   = 163.6807

EPHEMERIS_TYPE = 0
CLASSIFICATION_TYPE = U
NORAD_CAT_ID   = 67113
ELEMENT_SET_NO = 999
REV_AT_EPOCH   = 228
BSTAR          = -.4257864E-2
MEAN_MOTION_DOT = -.1628346E-1
MEAN_MOTION_DDOT = .75329996E-3

CCSDS_OMM_VERS = 2.0
CREATION_DATE  = 
ORIGINATOR     = 

OBJECT_NAME    = STARLINK-36180
OBJECT_ID      = 2025-299N
CENTER_NAME    = EARTH
REF_FRAME      = TEME
TIME_SYSTEM    = UTC
MEAN_ELEMENT_THEORY = SGP/SGP4

EPOCH          = 2025-12-22T14:00:01.999872
MEAN_MOTION    = 15.94101554
ECCENTRICITY   = .00021468
INCLINATION    = 42.9985
RA_OF_ASC_NODE = 256.4656
ARG_OF_PERICENTER = 256.4947
MEAN_ANOMALY   = 182.1749

EPHEMERIS_TYPE = 0
CLASSIFICATION_TYPE = U
NORAD_CAT_ID   = 67114
ELEMENT_SET_NO = 999
REV_AT_EPOCH   = 239
BSTAR          = -.43534103E-2
MEAN_MOTION_DOT = -.1665476E-1
MEAN_MOTION_DDOT = .78535966E-3

CCSDS_OMM_VERS = 2.0
CREATION_DATE  = 
ORIGINATOR     = 

OBJECT_NAME    = STARLINK-35892
OBJECT_ID      = 2025-299P
CENTER_NAME    = EARTH
REF_FRAME      = TEME
TIME_SYSTEM    = UTC
MEAN_ELEMENT_THEORY = SGP/SGP4

EPOCH          = 2025-12-22T14:00:01.999872
MEAN_MOTION    = 15.94182701
ECCENTRICITY   = .00018176
INCLINATION    = 42.9985
RA_OF_ASC_NODE = 256.4616
ARG_OF_PERICENTER = 274.7945
MEAN_ANOMALY   = 165.3765

EPHEMERIS_TYPE = 0
CLASSIFICATION_TYPE = U
NORAD_CAT_ID   = 67115
ELEMENT_SET_NO = 999
REV_AT_EPOCH   = 228
BSTAR          = -.47193811E-2
MEAN_MOTION_DOT = -.1811212E-1
MEAN_MOTION_DDOT = .91798814E-3

CCSDS_OMM_VERS = 2.0
CREATION_DATE  = 
ORIGINATOR     = 

OBJECT_NAME    = STARLINK-35738
OBJECT_ID      = 2025-299Q
CENTER_NAME    = EARTH
REF_FRAME      = TEME
TIME_SYSTEM    = UTC
MEAN_ELEMENT_THEORY = SGP/SGP4

EPOCH          = 2025-12-22T14:00:01.999872
MEAN_MOTION    = 15.94157928
ECCENTRICITY   = .00017672
INCLINATION    = 42.9986
RA_OF_ASC_NODE = 256.4571
ARG_OF_PERICENTER = 269.3824
MEAN_ANOMALY   = 172.6478

EPHEMERIS_TYPE = 0
CLASSIFICATION_TYPE = U
NORAD_CAT_ID   = 67116
ELEMENT_SET_NO = 999
REV_AT_EPOCH   = 228
BSTAR          = -.45802374E-2
MEAN_MOTION_DOT = -.1756183E-1
MEAN_MOTION_DDOT = .86673503E-3

CCSDS_OMM_VERS = 2.0
CREATION_DATE  = 
ORIGINATOR     = 

OBJECT_NAME    = STARLINK-35674
OBJECT_ID      = 2025-299R
CENTER_NAME    = EARTH
REF_FRAME      = TEME
TIME_SYSTEM    = UTC
MEAN_ELEMENT_THEORY = SGP/SGP4

EPOCH          = 2025-12-22T14:00:01.999872
MEAN_MOTION    = 15.94135687
ECCENTRICITY   = .00018216
INCLINATION    = 42.9986
RA_OF_ASC_NODE = 256.4528
ARG_OF_PERICENTER = 267.3678
MEAN_ANOMALY   = 176.3014

EPHEMERIS_TYPE = 0
CLASSIFICATION_TYPE = U
NORAD_CAT_ID   = 67117
ELEMENT_SET_NO = 999
REV_AT_EPOCH   = 218
BSTAR          = -.44243787E-2
MEAN_MOTION_DOT = -.169521E-1
MEAN_MOTION_DDOT = .81171896E-3

CCSDS_OMM_VERS = 2.0
CREATION_DATE  = 
ORIGINATOR     = 

OBJECT_NAME    = STARLINK-35701
OBJECT_ID      = 2025-299S
CENTER_NAME    = EARTH
REF_FRAME      = TEME
TIME_SYSTEM    = UTC
MEAN_ELEMENT_THEORY = SGP/SGP4

EPOCH          = 2025-12-22T14:00:01.999872
MEAN_MOTION    = 15.94157433
ECCENTRICITY   = .00020932
INCLINATION    = 42.9986
RA_OF_ASC_NODE = 256.4485
ARG_OF_PERICENTER = 277.9896
MEAN_ANOMALY   = 167.3654

EPHEMERIS_TYPE = 0
CLASSIFICATION_TYPE = U
NORAD_CAT_ID   = 67118
ELEMENT_SET_NO = 999
REV_AT_EPOCH   = 234
BSTAR          = -.45008811E-2
MEAN_MOTION_DOT = -.1726208E-1
MEAN_MOTION_DDOT = .83954952E-3

CCSDS_OMM_VERS = 2.0
CREATION_DATE  = 
ORIGINATOR     = 

OBJECT_NAME    = STARLINK-36179
OBJECT_ID      = 2025-299T
CENTER_NAME    = EARTH
REF_FRAME      = TEME
TIME_SYSTEM    = UTC
MEAN_ELEMENT_THEORY = SGP/SGP4

EPOCH          = 2025-12-22T14:00:01.999872
MEAN_MOTION    = 15.94186862
ECCENTRICITY   = .00020374
INCLINATION    = 42.9984
RA_OF_ASC_NODE = 256.4419
ARG_OF_PERICENTER = 278.3787
MEAN_ANOMALY   = 169.4852

EPHEMERIS_TYPE = 0
CLASSIFICATION_TYPE = U
NORAD_CAT_ID   = 67119
ELEMENT_SET_NO = 999
REV_AT_EPOCH   = 239
BSTAR          = -.45098603E-2
MEAN_MOTION_DOT = -.1732272E-1
MEAN_MOTION_DDOT = .84526304E-3

CCSDS_OMM_VERS = 2.0
CREATION_DATE  = 
ORIGINATOR     = 

OBJECT_NAME    = STARLINK-36217
OBJECT_ID      = 2025-299U
CENTER_NAME    = EARTH
REF_FRAME      = TEME
TIME_SYSTEM    = UTC
MEAN_ELEMENT_THEORY = SGP/SGP4

EPOCH          = 2025-12-22T14:00:01.999872
MEAN_MOTION    = 15.94172329
ECCENTRICITY   = .00014806
INCLINATION    = 42.9987
RA_OF_ASC_NODE = 256.4452
ARG_OF_PERICENTER = 258.7531
MEAN_ANOMALY   = 187.9880

EPHEMERIS_TYPE = 0
CLASSIFICATION_TYPE = U
NORAD_CAT_ID   = 67120
ELEMENT_SET_NO = 999
REV_AT_EPOCH   = 239
BSTAR          = -.45348175E-2
MEAN_MOTION_DOT = -.1740231E-1
MEAN_MOTION_DDOT = .85234333E-3

CCSDS_OMM_VERS = 2.0
CREATION_DATE  = 
ORIGINATOR     = 

OBJECT_NAME    = STARLINK-36124
OBJECT_ID      = 2025-299V
CENTER_NAME    = EARTH
REF_FRAME      = TEME
TIME_SYSTEM    = UTC
MEAN_ELEMENT_THEORY = SGP/SGP4

EPOCH          = 2025-12-22T14:00:01.999872
MEAN_MOTION    = 15.94211499
ECCENTRICITY   = .00016826
INCLINATION    = 42.9985
RA_OF_ASC_NODE = 256.4336
ARG_OF_PERICENTER = 259.6028
MEAN_ANOMALY   = 191.6134

EPHEMERIS_TYPE = 0
CLASSIFICATION_TYPE = U
NORAD_CAT_ID   = 67121
ELEMENT_SET_NO = 999
REV_AT_EPOCH   = 239
BSTAR          = -.45657926E-2
MEAN_MOTION_DOT = -.175564E-1
MEAN_MOTION_DDOT = .86670906E-3

